{
  "norad_id": 62883,
  "name": "STARLINK-11419 [DTC]",
  "history": [
    {
      "epoch": "2026-03-28T22:28:13.159488Z",
      "apogee_km": 356.84666453609043,
      "perigee_km": 355.23369441806153,
      "latitude_deg": -4.188872278656531e-05,
      "longitude_deg": -97.96493514527523,
      "height_km": 356.6171302667401,
      "semi_major_axis_km": 6734.177179477076,
      "eccentricity": 0.00011976,
      "inclination_deg": 42.9998,
      "raan_deg": 65.4395,
      "arg_perigee_deg": 178.0004,
      "mean_anomaly_deg": 182.0868,
      "mean_motion_rev_day": 15.70999164
    },
    {
      "epoch": "2026-03-28T23:59:46.514688Z",
      "apogee_km": 357.0963414781145,
      "perigee_km": 355.48277287501514,
      "latitude_deg": -2.4608614214221793e-05,
      "longitude_deg": -121.29936454358308,
      "height_km": 356.0457011451792,
      "semi_major_axis_km": 6734.4265571765645,
      "eccentricity": 0.0001198,
      "inclination_deg": 43.0,
      "raan_deg": 65.0567,
      "arg_perigee_deg": 271.1456,
      "mean_anomaly_deg": 88.9274,
      "mean_motion_rev_day": 15.70911903
    },
    {
      "epoch": "2026-03-30T04:59:24.624096Z",
      "apogee_km": 357.33120511235666,
      "perigee_km": 355.4468847249891,
      "latitude_deg": 4.284476721187072e-05,
      "longitude_deg": 155.31668098091814,
      "height_km": 356.94288106719773,
      "semi_major_axis_km": 6734.526044918673,
      "eccentricity": 0.0001399,
      "inclination_deg": 42.9992,
      "raan_deg": 57.7722,
      "arg_perigee_deg": 213.8847,
      "mean_anomaly_deg": 146.1932,
      "mean_motion_rev_day": 15.70877093
    },
    {
      "epoch": "2026-03-30T06:30:58.383648Z",
      "apogee_km": 357.90100696803165,
      "perigee_km": 354.9835872165322,
      "latitude_deg": -1.7321649987327457e-06,
      "longitude_deg": 131.9821963054932,
      "height_km": 356.7534566812875,
      "semi_major_axis_km": 6734.579297092282,
      "eccentricity": 0.0002166,
      "inclination_deg": 43.0013,
      "raan_deg": 57.3911,
      "arg_perigee_deg": 248.3504,
      "mean_anomaly_deg": 111.7133,
      "mean_motion_rev_day": 15.70858461
    },
    {
      "epoch": "2026-03-30T06:30:58.384512Z",
      "apogee_km": 357.9009396222391,
      "perigee_km": 354.9836545623257,
      "latitude_deg": -2.4625925905364373e-06,
      "longitude_deg": 131.98219191678146,
      "height_km": 356.75343183901396,
      "semi_major_axis_km": 6734.579297092282,
      "eccentricity": 0.00021659,
      "inclination_deg": 43.0013,
      "raan_deg": 57.3911,
      "arg_perigee_deg": 248.3504,
      "mean_anomaly_deg": 111.7133,
      "mean_motion_rev_day": 15.70858461
    },
    {
      "epoch": "2026-03-30T21:46:34.855968Z",
      "apogee_km": 357.16852950463544,
      "perigee_km": 354.9758709890357,
      "latitude_deg": 1.4713905488447116e-05,
      "longitude_deg": -101.38076474092682,
      "height_km": 356.8909896098994,
      "semi_major_axis_km": 6734.209200246835,
      "eccentricity": 0.0001628,
      "inclination_deg": 42.9986,
      "raan_deg": 53.5568,
      "arg_perigee_deg": 197.1658,
      "mean_anomaly_deg": 162.9155,
      "mean_motion_rev_day": 15.70987959
    },
    {
      "epoch": "2026-03-31T06:55:56.157024Z",
      "apogee_km": 357.19698994889586,
      "perigee_km": 355.4743118447959,
      "latitude_deg": 3.5452286342022364e-05,
      "longitude_deg": 118.60668333691528,
      "height_km": 356.22724477797175,
      "semi_major_axis_km": 6734.472650896845,
      "eccentricity": 0.0001279,
      "inclination_deg": 43.0,
      "raan_deg": 51.259,
      "arg_perigee_deg": 262.0396,
      "mean_anomaly_deg": 98.0327,
      "mean_motion_rev_day": 15.70895775
    },
    {
      "epoch": "2026-04-01T13:27:08.897760Z",
      "apogee_km": 356.82490741458605,
      "perigee_km": 355.8955467972455,
      "latitude_deg": -6.112229535924456e-06,
      "longitude_deg": 11.882533992498159,
      "height_km": 355.69167321447446,
      "semi_major_axis_km": 6734.497227105915,
      "eccentricity": 6.9e-05,
      "inclination_deg": 43.0019,
      "raan_deg": 43.5914,
      "arg_perigee_deg": 18.8531,
      "mean_anomaly_deg": 341.2362,
      "mean_motion_rev_day": 15.70887176
    },
    {
      "epoch": "2026-04-02T19:58:18.732864Z",
      "apogee_km": 357.1082362949319,
      "perigee_km": 355.32767284494366,
      "latitude_deg": 4.8049120796426925e-05,
      "longitude_deg": -94.82457389474926,
      "height_km": 355.9470028467633,
      "semi_major_axis_km": 6734.354954569938,
      "eccentricity": 0.0001322,
      "inclination_deg": 42.9997,
      "raan_deg": 35.9286,
      "arg_perigee_deg": 272.7871,
      "mean_anomaly_deg": 87.2846,
      "mean_motion_rev_day": 15.70936957
    },
    {
      "epoch": "2026-04-02T23:01:25.265280Z",
      "apogee_km": 357.29331550526695,
      "perigee_km": 354.928113023062,
      "latitude_deg": -1.8538323805552715e-06,
      "longitude_deg": -141.4933789906912,
      "height_km": 356.37875030820857,
      "semi_major_axis_km": 6734.247714264164,
      "eccentricity": 0.00017561,
      "inclination_deg": 43.001,
      "raan_deg": 35.1624,
      "arg_perigee_deg": 245.2343,
      "mean_anomaly_deg": 114.8342,
      "mean_motion_rev_day": 15.70974482
    },
    {
      "epoch": "2026-04-03T20:23:17.611296Z",
      "apogee_km": 356.9013761152264,
      "perigee_km": 355.8723408696487,
      "latitude_deg": 5.070688381968372e-05,
      "longitude_deg": -108.20534188165786,
      "height_km": 355.815689787428,
      "semi_major_axis_km": 6734.523858492437,
      "eccentricity": 7.64e-05,
      "inclination_deg": 43.0,
      "raan_deg": 29.7959,
      "arg_perigee_deg": 311.7965,
      "mean_anomaly_deg": 48.2838,
      "mean_motion_rev_day": 15.70877858
    },
    {
      "epoch": "2026-04-04T05:32:38.629824Z",
      "apogee_km": 357.0360218220667,
      "perigee_km": 355.52818538477004,
      "latitude_deg": -2.7514942724475467e-05,
      "longitude_deg": 111.78218035059217,
      "height_km": 355.91839435157505,
      "semi_major_axis_km": 6734.419103603418,
      "eccentricity": 0.00011195,
      "inclination_deg": 42.9998,
      "raan_deg": 27.4971,
      "arg_perigee_deg": 280.3844,
      "mean_anomaly_deg": 79.6897,
      "mean_motion_rev_day": 15.70914511
    },
    {
      "epoch": "2026-04-05T12:03:51.748128Z",
      "apogee_km": 357.1514279099647,
      "perigee_km": 355.81150821955816,
      "latitude_deg": -1.4518119937638984e-05,
      "longitude_deg": 5.058608359546983,
      "height_km": 355.6614613693202,
      "semi_major_axis_km": 6734.618468064761,
      "eccentricity": 9.948e-05,
      "inclination_deg": 43.0007,
      "raan_deg": 19.8316,
      "arg_perigee_deg": 28.1286,
      "mean_anomaly_deg": 331.9635,
      "mean_motion_rev_day": 15.70844756
    },
    {
      "epoch": "2026-04-05T19:41:38.974272Z",
      "apogee_km": 357.3096358481598,
      "perigee_km": 355.27449138513475,
      "latitude_deg": -5.746732650901939e-05,
      "longitude_deg": -111.61825774441563,
      "height_km": 356.19058101620425,
      "semi_major_axis_km": 6734.429063616647,
      "eccentricity": 0.0001511,
      "inclination_deg": 43.0009,
      "raan_deg": 17.9149,
      "arg_perigee_deg": 262.8925,
      "mean_anomaly_deg": 97.177,
      "mean_motion_rev_day": 15.70911026
    },
    {
      "epoch": "2026-04-06T03:19:26.581440Z",
      "apogee_km": 357.8501158165782,
      "perigee_km": 354.6654205307077,
      "latitude_deg": 2.1124379307817356e-05,
      "longitude_deg": 131.70381370766566,
      "height_km": 355.8952375936131,
      "semi_major_axis_km": 6734.394768173643,
      "eccentricity": 0.00023645,
      "inclination_deg": 43.0036,
      "raan_deg": 15.9986,
      "arg_perigee_deg": 274.9042,
      "mean_anomaly_deg": 85.1556,
      "mean_motion_rev_day": 15.70923026
    },
    {
      "epoch": "2026-04-07T00:41:16.461600Z",
      "apogee_km": 357.0009816027641,
      "perigee_km": 354.6753359419308,
      "latitude_deg": -2.8875386971922883e-06,
      "longitude_deg": 165.00276951066732,
      "height_km": 356.4390492297361,
      "semi_major_axis_km": 6733.975158772348,
      "eccentricity": 0.00017268,
      "inclination_deg": 42.9992,
      "raan_deg": 10.6328,
      "arg_perigee_deg": 224.5384,
      "mean_anomaly_deg": 135.5345,
      "mean_motion_rev_day": 15.7106986
    },
    {
      "epoch": "2026-04-07T18:59:59.335008Z",
      "apogee_km": 356.9315130124496,
      "perigee_km": 355.5455785251306,
      "latitude_deg": -4.264706316553552e-06,
      "longitude_deg": -115.02671678656344,
      "height_km": 356.06475600259205,
      "semi_major_axis_km": 6734.37554576879,
      "eccentricity": 0.0001029,
      "inclination_deg": 42.9989,
      "raan_deg": 6.034,
      "arg_perigee_deg": 265.512,
      "mean_anomaly_deg": 94.563,
      "mean_motion_rev_day": 15.70929752
    },
    {
      "epoch": "2026-04-08T10:15:35.723520Z",
      "apogee_km": 357.4850280429573,
      "perigee_km": 354.8186537192978,
      "latitude_deg": 1.3247330079687028e-05,
      "longitude_deg": 11.611570792714568,
      "height_km": 355.59458904734066,
      "semi_major_axis_km": 6734.288840881127,
      "eccentricity": 0.00019797,
      "inclination_deg": 43.0014,
      "raan_deg": 2.2006,
      "arg_perigee_deg": 284.3448,
      "mean_anomaly_deg": 75.72,
      "mean_motion_rev_day": 15.70960091
    },
    {
      "epoch": "2026-04-09T03:02:44.512512Z",
      "apogee_km": 357.5646511130226,
      "perigee_km": 355.17915336967053,
      "latitude_deg": -3.1719615269887084e-06,
      "longitude_deg": 114.92176307564158,
      "height_km": 356.4826941421674,
      "semi_major_axis_km": 6734.508902241346,
      "eccentricity": 0.00017711,
      "inclination_deg": 43.0,
      "raan_deg": 357.9868,
      "arg_perigee_deg": 253.5302,
      "mean_anomaly_deg": 106.5371,
      "mean_motion_rev_day": 15.70883091
    },
    {
      "epoch": "2026-04-10T01:56:08.227392Z",
      "apogee_km": 358.3016170799974,
      "perigee_km": 353.5251551411284,
      "latitude_deg": 2.4176435560072806e-06,
      "longitude_deg": 124.88259866027074,
      "height_km": 355.95984683850696,
      "semi_major_axis_km": 6734.050386110563,
      "eccentricity": 0.00035465,
      "inclination_deg": 42.9997,
      "raan_deg": 352.2365,
      "arg_perigee_deg": 263.4447,
      "mean_anomaly_deg": 96.6017,
      "mean_motion_rev_day": 15.71043534
    },
    {
      "epoch": "2026-04-11T16:05:07.941984Z",
      "apogee_km": 357.5515557330109,
      "perigee_km": 354.6706443958028,
      "latitude_deg": -2.6628195732819526e-05,
      "longitude_deg": -98.51450792116647,
      "height_km": 356.59257780563286,
      "semi_major_axis_km": 6734.248100064407,
      "eccentricity": 0.0002139,
      "inclination_deg": 42.9993,
      "raan_deg": 342.655,
      "arg_perigee_deg": 240.521,
      "mean_anomaly_deg": 119.5444,
      "mean_motion_rev_day": 15.70974347
    },
    {
      "epoch": "2026-04-13T00:07:53.557536Z",
      "apogee_km": 358.19705642153895,
      "perigee_km": 354.54749115588766,
      "latitude_deg": -2.599566121382144e-05,
      "longitude_deg": 131.4316443042283,
      "height_km": 356.0744202268939,
      "semi_major_axis_km": 6734.5092737887135,
      "eccentricity": 0.00027096,
      "inclination_deg": 43.0028,
      "raan_deg": 334.6073,
      "arg_perigee_deg": 272.2487,
      "mean_anomaly_deg": 87.807,
      "mean_motion_rev_day": 15.70882961
    }
  ]
}